NORAD_CAT_ID,OBJECT_NAME,OBJECT_TYPE,EPOCH,MEAN_MOTION,ECCENTRICITY,INCLINATION,RA_OF_ASC_NODE,ARG_OF_PERICENTER,MEAN_ANOMALY,BSTAR,MEAN_MOTION_DOT,MEAN_MOTION_DDOT,TLE_LINE0,TLE_LINE1,TLE_LINE2,SEMIMAJOR_AXIS,PERIOD,APOGEE,PERIGEE,DECAYED
53935.0,STARLINK-5000,PAYLOAD,2024-08-12 08:44:52,15.08845772,0.0001857,53.2172,347.2487,91.4475,268.673,0.0011793,0.00018533,0.0,0 STARLINK-5000,1 53935U 22119BB  24225.36449526  .00018533  00000-0  11793-2 0  9997,2 53935  53.2172 347.2487 0001857  91.4475 268.6730 15.08845772105053,6917.863,95.437,541.012,538.443,0.0
53935.0,STARLINK-5000,PAYLOAD,2024-08-12 15:06:24,15.08902992,8.31e-05,53.2182,346.056,73.1442,286.9641,0.0036605,0.00058554,0.0,0 STARLINK-5000,1 53935U 22119BB  24225.62944597  .00058554  00000-0  36605-2 0  9990,2 53935  53.2182 346.0560 0000831  73.1442 286.9641 15.08902992105518,6917.688,95.434,540.128,538.978,0.0
53935.0,STARLINK-5000,PAYLOAD,2024-08-13 08:35:37,15.08806425,0.0002626,53.213,342.785,314.7624,45.3154,-0.0013015,-0.00020924,0.0,0 STARLINK-5000,1 53935U 22119BB  24226.35807696 -.00020924  00000-0 -13015-2 0  9991,2 53935  53.2130 342.7850 0002626 314.7624  45.3154 15.08806425105202,6917.983,95.44,541.665,538.031,0.0
53935.0,STARLINK-5000,PAYLOAD,2024-08-13 16:32:34,15.08761518,0.0001014,53.2126,341.2979,93.0817,267.0291,0.001292,0.0002029,0.0,0 STARLINK-5000,1 53935U 22119BB  24226.68929244  .00020290  00000-0  12920-2 0  9999,2 53935  53.2126 341.2979 0001014  93.0817 267.0291 15.08761518105673,6918.12,95.443,540.687,539.284,0.0
53935.0,STARLINK-5000,PAYLOAD,2024-08-14 00:29:31,15.08787293,8.13e-05,53.2178,339.8122,106.7334,253.3747,0.0016021,0.00025264,0.0,0 STARLINK-5000,1 53935U 22119BB  24227.02050410  .00025264  00000-0  16021-2 0  9990,2 53935  53.2178 339.8122 0000813 106.7334 253.3747 15.08787293105307,6918.041,95.441,540.469,539.344,0.0
53935.0,STARLINK-5000,PAYLOAD,2024-08-14 13:12:37,15.08828901,0.0001116,53.2179,337.4341,102.0669,258.0449,0.0020998,0.00033278,0.0,0 STARLINK-5000,1 53935U 22119BB  24227.55043466  .00033278  00000-0  20998-2 0  9993,2 53935  53.2179 337.4341 0001116 102.0669 258.0449 15.08828901105383,6917.914,95.438,540.551,539.007,0.0
53935.0,STARLINK-5000,PAYLOAD,2024-08-14 14:48:00,15.08833829,0.0001127,53.2175,337.1365,101.422,258.6898,0.0021098,0.00033443,0.0,0 STARLINK-5000,1 53935U 22119BB  24227.61667488  .00033443  00000-0  21098-2 0  9992,2 53935  53.2175 337.1365 0001127 101.4220 258.6898 15.08833829105817,6917.899,95.438,540.544,538.985,0.0
53935.0,STARLINK-5000,PAYLOAD,2024-08-15 00:20:19,15.08855128,0.0001061,53.2174,335.3527,94.0864,266.025,0.0017023,0.00026919,0.0,0 STARLINK-5000,1 53935U 22119BB  24228.01411336  .00026919  00000-0  17023-2 0  9999,2 53935  53.2174 335.3527 0001061  94.0864 266.0250 15.08855128105871,6917.834,95.437,540.433,538.965,0.0
53935.0,STARLINK-5000,PAYLOAD,2024-08-16 00:11:04,15.08898967,0.000114,53.2169,330.8864,77.3132,282.7988,0.0014258,0.00022513,0.0,0 STARLINK-5000,1 53935U 22119BB  24229.00768824  .00022513  00000-0  14258-2 0  9999,2 53935  53.2169 330.8864 0001140  77.3132 282.7988 15.08898967105601,6917.7,95.434,540.354,538.777,0.0
53935.0,STARLINK-5000,PAYLOAD,2024-08-17 06:23:24,15.08856941,0.0001471,53.2142,325.2415,77.8077,282.308,0.0010724,0.00016828,0.0,0 STARLINK-5000,1 53935U 22119BB  24230.26625111  .00016828  00000-0  10724-2 0  9996,2 53935  53.2142 325.2415 0001471  77.8077 282.3080 15.08856941105797,6917.829,95.436,540.711,538.676,0.0
53935.0,STARLINK-5000,PAYLOAD,2024-08-17 15:55:42,15.08844475,0.0002356,53.2171,323.4576,270.796,89.2763,0.00089808,0.00014036,0.0,0 STARLINK-5000,1 53935U 22119BB  24230.66368699  .00014036  00000-0  89808-3 0  9994,2 53935  53.2171 323.4576 0002356 270.7960  89.2763 15.08844475105853,6917.867,95.437,541.362,538.102,0.0
53935.0,STARLINK-5000,PAYLOAD,2024-08-18 06:14:12,15.08848082,0.0001014,53.2177,320.7823,53.8649,306.2437,0.0015275,0.00024111,0.0,0 STARLINK-5000,1 53935U 22119BB  24231.25986132  .00024111  00000-0  15275-2 0  9999,2 53935  53.2177 320.7823 0001014  53.8649 306.2437 15.08848082106363,6917.856,95.437,540.422,539.019,0.0
53935.0,STARLINK-5000,PAYLOAD,2024-08-18 12:35:44,15.08871438,0.0001469,53.2178,319.5936,84.2411,275.8749,0.0019714,0.00031253,0.0,0 STARLINK-5000,1 53935U 22119BB  24231.52481659  .00031253  00000-0  19714-2 0  9990,2 53935  53.2178 319.5936 0001469  84.2411 275.8749 15.08871438105989,6917.784,95.436,540.666,538.633,0.0
53935.0,STARLINK-5000,PAYLOAD,2024-08-19 12:26:31,15.08835307,0.0001174,53.218,315.13,99.6766,260.4359,0.0013789,0.00021722,0.0,0 STARLINK-5000,1 53935U 22119BB  24232.51841826  .00021722  00000-0  13789-2 0  9992,2 53935  53.2180 315.1300 0001174  99.6766 260.4359 15.08835307106135,6917.895,95.438,540.572,538.948,0.0
53935.0,STARLINK-5000,PAYLOAD,2024-08-20 12:17:18,15.08843305,0.0001473,53.2173,310.6691,95.7763,264.3397,0.00048817,7.49e-05,0.0,0 STARLINK-5000,1 53935U 22119BB  24233.51202144  .00007490  00000-0  48817-3 0  9994,2 53935  53.2173 310.6691 0001473  95.7763 264.3397 15.08843305106284,6917.87,95.437,540.754,538.716,0.0
53935.0,STARLINK-5000,PAYLOAD,2024-08-21 12:08:05,15.08842439,0.0001429,53.2171,306.2101,92.9455,267.17,0.00021563,3.146e-05,0.0,0 STARLINK-5000,1 53935U 22119BB  24234.50562253  .00003146  00000-0  21563-3 0  9997,2 53935  53.2171 306.2101 0001429  92.9455 267.1700 15.08842439106430,6917.873,95.437,540.726,538.749,0.0
